{"fetched_at":"2026-07-06T18:35:52.738Z","source":"https://celestrak.org/NORAD/elements/gp.php?NAME=SENTINEL&FORMAT=JSON","constellation":"sentinel-1","records":[{"OBJECT_NAME":"SENTINEL-1A","OBJECT_ID":"2014-016A","EPOCH":"2026-07-06T07:02:11.990976","CLASSIFICATION_TYPE":"U","MEAN_MOTION":14.59200439,"ECCENTRICITY":0.00013826,"INCLINATION":98.1781,"RA_OF_ASC_NODE":194.5471,"ARG_OF_PERICENTER":85.6642,"MEAN_ANOMALY":274.4716,"EPHEMERIS_TYPE":0,"NORAD_CAT_ID":39634,"ELEMENT_SET_NO":999,"REV_AT_EPOCH":65280,"BSTAR":0.000046631919,"MEAN_MOTION_DOT":0.00000174,"MEAN_MOTION_DDOT":0},{"OBJECT_NAME":"SENTINEL-1B","OBJECT_ID":"2016-025A","EPOCH":"2026-07-06T06:45:06.310656","CLASSIFICATION_TYPE":"U","MEAN_MOTION":14.9927225,"ECCENTRICITY":0.0016462,"INCLINATION":98.0915,"RA_OF_ASC_NODE":248.7781,"ARG_OF_PERICENTER":65.5947,"MEAN_ANOMALY":294.6991,"EPHEMERIS_TYPE":0,"NORAD_CAT_ID":41456,"ELEMENT_SET_NO":999,"REV_AT_EPOCH":54664,"BSTAR":0.000003844323,"MEAN_MOTION_DOT":-1.8e-7,"MEAN_MOTION_DDOT":0},{"OBJECT_NAME":"SENTINEL-1C","OBJECT_ID":"2024-235A","EPOCH":"2026-07-06T06:20:10.894272","CLASSIFICATION_TYPE":"U","MEAN_MOTION":14.5919786,"ECCENTRICITY":0.00013082,"INCLINATION":98.1823,"RA_OF_ASC_NODE":194.3002,"ARG_OF_PERICENTER":90.5552,"MEAN_ANOMALY":269.5797,"EPHEMERIS_TYPE":0,"NORAD_CAT_ID":62261,"ELEMENT_SET_NO":999,"REV_AT_EPOCH":8419,"BSTAR":-3.32212e-7,"MEAN_MOTION_DOT":-4.7e-7,"MEAN_MOTION_DDOT":0},{"OBJECT_NAME":"SENTINEL-1D","OBJECT_ID":"2025-251A","EPOCH":"2026-07-06T00:34:48.058176","CLASSIFICATION_TYPE":"U","MEAN_MOTION":14.5919746,"ECCENTRICITY":0.0001284,"INCLINATION":98.1835,"RA_OF_ASC_NODE":194.1186,"ARG_OF_PERICENTER":89.9022,"MEAN_ANOMALY":270.2325,"EPHEMERIS_TYPE":0,"NORAD_CAT_ID":66315,"ELEMENT_SET_NO":999,"REV_AT_EPOCH":3547,"BSTAR":-0.000010741183,"MEAN_MOTION_DOT":-9.6e-7,"MEAN_MOTION_DDOT":0}]}
